NORAD_CAT_ID,OBJECT_NAME,OBJECT_TYPE,EPOCH,MEAN_MOTION,ECCENTRICITY,INCLINATION,RA_OF_ASC_NODE,ARG_OF_PERICENTER,MEAN_ANOMALY,BSTAR,MEAN_MOTION_DOT,MEAN_MOTION_DDOT,TLE_LINE0,TLE_LINE1,TLE_LINE2,SEMIMAJOR_AXIS,PERIOD,APOGEE,PERIGEE,DECAYED
51866.0,STARLINK-3553,PAYLOAD,2024-05-31 22:16:40,15.08841587,0.0001532,53.2195,32.4037,88.0613,272.0554,-3.2605e-06,-3.4e-06,0.0,0 STARLINK-3553,1 51866U 22022Q   24152.92824963 -.00000340  00000-0 -32605-5 0  9991,2 51866  53.2195  32.4037 0001532  88.0613 272.0554 15.08841587125470,6917.876,95.437,540.8,538.681,0.0
51866.0,STARLINK-3553,PAYLOAD,2024-06-01 01:27:26,15.08845143,0.0001492,53.2193,31.8073,91.8274,268.2889,2.1805e-05,5.9e-07,0.0,0 STARLINK-3553,1 51866U 22022Q   24153.06072599  .00000059  00000-0  21805-4 0  9991,2 51866  53.2193  31.8073 0001492  91.8274 268.2889 15.08845143125493,6917.865,95.437,540.762,538.698,0.0
51866.0,STARLINK-3553,PAYLOAD,2024-06-01 09:24:21,15.08850079,0.0001496,53.2197,30.3211,93.3168,266.7995,6.1938e-05,6.98e-06,0.0,0 STARLINK-3553,1 51866U 22022Q   24153.39192062  .00000698  00000-0  61938-4 0  9995,2 51866  53.2197  30.3211 0001496  93.3168 266.7995 15.08850079125549,6917.85,95.437,540.749,538.68,0.0
51866.0,STARLINK-3553,PAYLOAD,2024-06-01 20:32:04,15.08836356,0.0001492,53.22,28.2378,115.675,244.4397,6.5835e-05,7.6e-06,0.0,0 STARLINK-3553,1 51866U 22022Q   24153.85560845  .00000760  00000-0  65835-4 0  9994,2 51866  53.2200  28.2378 0001492 115.6750 244.4397 15.08836356125614,6917.892,95.438,540.789,538.724,0.0
51866.0,STARLINK-3553,PAYLOAD,2024-06-01 22:07:27,15.08832943,0.0001309,53.2205,27.9416,109.1984,250.915,6.0694e-05,6.78e-06,0.0,0 STARLINK-3553,1 51866U 22022Q   24153.92185119  .00000678  00000-0  60694-4 0  9995,2 51866  53.2205  27.9416 0001309 109.1984 250.9150 15.08832943125620,6917.902,95.438,540.673,538.861,0.0
51866.0,STARLINK-3553,PAYLOAD,2024-06-02 21:58:14,15.08838139,0.0001435,53.2185,23.4829,95.9282,264.1873,0.0001104,1.469e-05,0.0,0 STARLINK-3553,1 51866U 22022Q   24154.91544852  .00001469  00000-0  11040-3 0  9997,2 51866  53.2185  23.4829 0001435  95.9282 264.1873 15.08838139125777,6917.886,95.438,540.744,538.758,0.0
51866.0,STARLINK-3553,PAYLOAD,2024-06-03 01:09:00,15.08842709,0.0001432,53.2187,22.8862,101.7193,258.396,8.2327e-05,1.023e-05,0.0,0 STARLINK-3553,1 51866U 22022Q   24155.04792635  .00001023  00000-0  82327-4 0  9999,2 51866  53.2187  22.8862 0001432 101.7193 258.3960 15.08842709125795,6917.872,95.437,540.728,538.746,0.0
51866.0,STARLINK-3553,PAYLOAD,2024-06-03 21:49:02,15.08820173,0.0001149,53.2167,19.0225,100.9837,259.1284,0.00040057,6.09e-05,0.0,0 STARLINK-3553,1 51866U 22022Q   24155.90905877  .00006090  00000-0  40057-3 0  9990,2 51866  53.2167  19.0225 0001149 100.9837 259.1284 15.08820173125929,6917.941,95.439,540.601,539.011,0.0
51866.0,STARLINK-3553,PAYLOAD,2024-06-04 07:21:20,15.08847428,0.0001648,53.2223,17.2393,98.1457,261.9722,0.00012355,1.679e-05,0.0,0 STARLINK-3553,1 51866U 22022Q   24156.30648488  .00001679  00000-0  12355-3 0  9995,2 51866  53.2223  17.2393 0001648  98.1457 261.9722 15.08847428125984,6917.858,95.437,540.863,538.583,0.0
51866.0,STARLINK-3553,PAYLOAD,2024-06-04 21:39:48,15.08857223,0.0001768,53.2267,14.5626,87.8148,272.3047,-7.1854e-05,-1.432e-05,0.0,0 STARLINK-3553,1 51866U 22022Q   24156.90264430 -.00001432  00000-0 -71854-4 0  9991,2 51866  53.2267  14.5626 0001768  87.8148 272.3047 15.08857223126077,6917.828,95.436,540.916,538.47,0.0
51866.0,STARLINK-3553,PAYLOAD,2024-06-05 15:09:04,15.08830741,0.0001313,53.2227,11.2903,92.0621,268.0521,-0.00012314,-2.247e-05,0.0,0 STARLINK-3553,1 51866U 22022Q   24157.63130300 -.00002247  00000-0 -12314-3 0  9990,2 51866  53.2227  11.2903 0001313  92.0621 268.0521 15.08830741126182,6917.909,95.438,540.682,538.865,0.0
51866.0,STARLINK-3553,PAYLOAD,2024-06-06 07:02:54,15.08847002,9.71e-05,53.2211,8.3161,83.1868,276.9234,-1.614e-06,-3.13e-06,0.0,0 STARLINK-3553,1 51866U 22022Q   24158.29368889 -.00000313  00000-0 -16140-5 0  9993,2 51866  53.2211   8.3161 0000971  83.1868 276.9234 15.08847002126289,6917.859,95.437,540.396,539.052,0.0
51866.0,STARLINK-3553,PAYLOAD,2024-06-07 00:32:10,15.08839688,0.0002163,53.2189,5.0445,82.4424,277.6814,2.2716e-05,7.3e-07,0.0,0 STARLINK-3553,1 51866U 22022Q   24159.02233952  .00000073  00000-0  22716-4 0  9993,2 51866  53.2189   5.0445 0002163  82.4424 277.6814 15.08839688126392,6917.881,95.438,541.243,538.25,0.0
51866.0,STARLINK-3553,PAYLOAD,2024-06-07 19:36:48,15.08821238,6.93e-05,53.2195,1.4757,84.4582,275.6489,0.00012855,1.758e-05,0.0,0 STARLINK-3553,1 51866U 22022Q   24159.81722686  .00001758  00000-0  12855-3 0  9990,2 51866  53.2195   1.4757 0000693  84.4582 275.6489 15.08821238126510,6917.938,95.439,540.282,539.323,0.0
51866.0,STARLINK-3553,PAYLOAD,2024-06-08 06:44:27,15.08855021,0.0001038,53.2277,359.3936,85.6183,274.4927,0.00035778,5.413e-05,0.0,0 STARLINK-3553,1 51866U 22022Q   24160.28087894  .00005413  00000-0  35778-3 0  9999,2 51866  53.2277 359.3936 0001038  85.6183 274.4927 15.08855021126587,6917.834,95.437,540.418,538.981,0.0
51866.0,STARLINK-3553,PAYLOAD,2024-06-08 19:27:34,15.08830187,0.0001126,53.2211,357.0153,93.4344,266.6777,-4.3643e-05,-9.82e-06,0.0,0 STARLINK-3553,1 51866U 22022Q   24160.81082136 -.00000982  00000-0 -43643-4 0  9991,2 51866  53.2211 357.0153 0001126  93.4344 266.6777 15.08830187126666,6917.91,95.438,540.554,538.996,0.0
51866.0,STARLINK-3553,PAYLOAD,2024-06-08 22:38:21,15.08839783,0.0002186,53.2172,356.4229,81.4576,278.6664,-8.016e-05,-1.564e-05,0.0,0 STARLINK-3553,1 51866U 22022Q   24160.94329917 -.00001564  00000-0 -80160-4 0  9998,2 51866  53.2172 356.4229 0002186  81.4576 278.6664 15.08839783126681,6917.881,95.438,541.258,538.234,0.0
51866.0,STARLINK-3553,PAYLOAD,2024-06-09 12:56:49,15.08838453,0.0002109,53.2175,353.7458,83.6329,276.4903,-5.7955e-05,-1.21e-05,0.0,0 STARLINK-3553,1 51866U 22022Q   24161.53946092 -.00001210  00000-0 -57955-4 0  9997,2 51866  53.2175 353.7458 0002109  83.6329 276.4903 15.08838453126778,6917.885,95.438,541.209,538.291,0.0
51866.0,STARLINK-3553,PAYLOAD,2024-06-09 22:29:08,15.08845834,0.0001917,53.2188,351.9608,98.4859,261.6351,-0.00015245,-2.714e-05,0.0,0 STARLINK-3553,1 51866U 22022Q   24161.93690258 -.00002714  00000-0 -15245-3 0  9996,2 51866  53.2188 351.9608 0001917  98.4859 261.6351 15.08845834126838,6917.863,95.437,541.054,538.401,0.0
51866.0,STARLINK-3553,PAYLOAD,2024-06-10 12:47:36,15.08836541,0.0001437,53.2189,349.2848,93.1611,266.9545,0.00013156,1.806e-05,0.0,0 STARLINK-3553,1 51866U 22022Q   24162.53306221  .00001806  00000-0  13156-3 0  9995,2 51866  53.2189 349.2848 0001437  93.1611 266.9545 15.08836541126928,6917.891,95.438,540.75,538.762,0.0
51866.0,STARLINK-3553,PAYLOAD,2024-06-10 19:09:09,15.08830181,0.0001194,53.2179,348.0954,88.5251,271.5878,9.3659e-05,1.203e-05,0.0,0 STARLINK-3553,1 51866U 22022Q   24162.79802840  .00001203  00000-0  93659-4 0  9999,2 51866  53.2179 348.0954 0001194  88.5251 271.5878 15.08830181126969,6917.91,95.438,540.601,538.949,0.0
51866.0,STARLINK-3553,PAYLOAD,2024-06-11 11:03:00,15.08835989,0.0001157,53.2184,345.1206,89.0619,271.0505,0.00015184,2.129e-05,0.0,0 STARLINK-3553,1 51866U 22022Q   24163.46042546  .00002129  00000-0  15184-3 0  9997,2 51866  53.2184 345.1206 0001157  89.0619 271.0505 15.08835989127061,6917.893,95.438,540.558,538.957,0.0
51866.0,STARLINK-3553,PAYLOAD,2024-06-12 04:32:13,15.08865347,0.0001302,53.2182,341.8511,85.5473,274.5668,0.00040731,6.205e-05,0.0,0 STARLINK-3553,1 51866U 22022Q   24164.18904795  .00006205  00000-0  40731-3 0  9995,2 51866  53.2182 341.8511 0001302  85.5473 274.5668 15.08865347127173,6917.803,95.436,540.569,538.767,0.0
51866.0,STARLINK-3553,PAYLOAD,2024-06-12 18:50:43,15.08825544,0.0001439,53.2177,339.1764,89.4694,270.6463,-0.00011242,-2.076e-05,0.0,0 STARLINK-3553,1 51866U 22022Q   24164.78523027 -.00002076  00000-0 -11242-3 0  9995,2 51866  53.2177 339.1764 0001439  89.4694 270.6463 15.08825544127261,6917.925,95.438,540.785,538.794,0.0
51866.0,STARLINK-3553,PAYLOAD,2024-06-13 04:23:02,15.08837313,0.0001592,53.2188,337.3931,94.484,265.6334,-1.0891e-05,-4.61e-06,0.0,0 STARLINK-3553,1 51866U 22022Q   24165.18266620 -.00000461  00000-0 -10891-4 0  9999,2 51866  53.2188 337.3931 0001592  94.4840 265.6334 15.08837313127323,6917.889,95.438,540.855,538.652,0.0
51866.0,STARLINK-3553,PAYLOAD,2024-06-13 21:52:16,15.08848445,0.0001618,53.218,334.1213,93.162,266.9557,0.00082429,0.00012858,0.0,0 STARLINK-3553,1 51866U 22022Q   24165.91130661  .00012858  00000-0  82429-3 0  9991,2 51866  53.2180 334.1213 0001618  93.1620 266.9557 15.08848445127435,6917.855,95.437,540.839,538.6,0.0
51866.0,STARLINK-3553,PAYLOAD,2024-06-14 04:13:49,15.08862441,0.000158,53.2176,332.9312,81.4468,278.6703,0.001005,0.00015753,0.0,0 STARLINK-3553,1 51866U 22022Q   24166.17626265  .00015753  00000-0  10050-2 0  9997,2 51866  53.2176 332.9312 0001580  81.4468 278.6703 15.08862441127473,6917.812,95.436,540.77,538.584,0.0
51866.0,STARLINK-3553,PAYLOAD,2024-06-14 18:32:17,15.08846413,0.0001507,53.2171,330.255,83.5376,276.5788,0.00034146,5.151e-05,0.0,0 STARLINK-3553,1 51866U 22022Q   24166.77242501  .00005151  00000-0  34146-3 0  9994,2 51866  53.2171 330.2550 0001507  83.5376 276.5788 15.08846413127564,6917.861,95.437,540.768,538.683,0.0
51866.0,STARLINK-3553,PAYLOAD,2024-06-15 04:04:35,15.08867609,0.0001472,53.2172,328.4718,85.3155,274.8005,0.001195,0.00018796,0.0,0 STARLINK-3553,1 51866U 22022Q   24167.16985910  .00018796  00000-0  11950-2 0  9992,2 51866  53.2172 328.4718 0001472  85.3155 274.8005 15.08867609127626,6917.796,95.436,540.679,538.643,0.0
51866.0,STARLINK-3553,PAYLOAD,2024-06-15 16:47:41,15.08830524,0.000116,53.2169,326.0917,106.2712,253.8407,0.0011002,0.0001726,0.0,0 STARLINK-3553,1 51866U 22022Q   24167.69978511  .00017260  00000-0  11002-2 0  9992,2 51866  53.2169 326.0917 0001160 106.2712 253.8407 15.08830524127701,6917.909,95.438,540.577,538.972,0.0
